{
    "links": {
        "self": "http://www.neowsapp.com/rest/v1/neo/3560077?api_key=iIulBulltgU6a56xZRHN4H3l9WmuAYTsLGpBGhQ2"
    },
    "id": "3560077",
    "neo_reference_id": "3560077",
    "name": "(2011 FY2)",
    "designation": "2011 FY2",
    "nasa_jpl_url": "http://ssd.jpl.nasa.gov/sbdb.cgi?sstr=3560077",
    "absolute_magnitude_h": 18.2,
    "estimated_diameter": {
        "kilometers": {
            "estimated_diameter_min": 0.6089126221,
            "estimated_diameter_max": 1.3615700154
        },
        "meters": {
            "estimated_diameter_min": 608.9126221057,
            "estimated_diameter_max": 1361.5700153859
        },
        "miles": {
            "estimated_diameter_min": 0.3783606449,
            "estimated_diameter_max": 0.846040122
        },
        "feet": {
            "estimated_diameter_min": 1997.7448871092,
            "estimated_diameter_max": 4467.0933692788
        }
    },
    "is_potentially_hazardous_asteroid": false,
    "close_approach_data": [
        {
            "close_approach_date": "1967-07-17",
            "close_approach_date_full": "1967-Jul-17 01:28",
            "epoch_date_close_approach": -77668320000,
            "relative_velocity": {
                "kilometers_per_second": "11.8560216389",
                "kilometers_per_hour": "42681.6779000872",
                "miles_per_hour": "26520.7348040847"
            },
            "miss_distance": {
                "astronomical": "0.4983891034",
                "lunar": "193.8733612226",
                "kilometers": "74557948.299849758",
                "miles": "46328160.8081643404"
            },
            "orbiting_body": "Earth"
        },
        {
            "close_approach_date": "2042-07-15",
            "close_approach_date_full": "2042-Jul-15 01:59",
            "epoch_date_close_approach": 2289002340000,
            "relative_velocity": {
                "kilometers_per_second": "12.703997394",
                "kilometers_per_hour": "45734.3906182513",
                "miles_per_hour": "28417.5717705462"
            },
            "miss_distance": {
                "astronomical": "0.4995269721",
                "lunar": "194.3159921469",
                "kilometers": "74728171.033709427",
                "miles": "46433932.3102950126"
            },
            "orbiting_body": "Earth"
        }
    ],
    "orbital_data": {
        "orbit_id": "56",
        "orbit_determination_date": "2020-10-16 08:01:56",
        "first_observation_date": "2002-02-14",
        "last_observation_date": "2020-10-15",
        "data_arc_in_days": 6818,
        "observations_used": 228,
        "orbit_uncertainty": "0",
        "minimum_orbit_intersection": ".501843",
        "jupiter_tisserand_invariant": "3.045",
        "epoch_osculation": "2459000.5",
        "eccentricity": ".5223904689542985",
        "semi_major_axis": "2.692074410668825",
        "inclination": "24.90457450122614",
        "ascending_node_longitude": "332.7454018556661",
        "orbital_period": "1613.351572508427",
        "perihelion_distance": "1.28576039681967",
        "perihelion_argument": "279.9217881775865",
        "aphelion_distance": "4.098388424517979",
        "perihelion_time": "2458980.457702970420",
        "mean_anomaly": "4.47219753809177",
        "mean_motion": ".223137973231882",
        "equinox": "J2000",
        "orbit_class": {
            "orbit_class_type": "AMO",
            "orbit_class_description": "Near-Earth asteroid orbits similar to that of 1221 Amor",
            "orbit_class_range": "1.017 AU < q (perihelion) < 1.3 AU"
        }
    },
    "is_sentry_object": false
}